CCSDS_OEM_VERS = 2.0
CREATION_DATE = 2020-04-10 09:53:53.048031
ORIGINATOR = ISAE-SUPAERO


META_START
OBJECT_NAME = GeoSat
OBJECT_ID = GeoSat
CENTER_NAME = Earth
REF_FRAME = EME2000
TIME_SYSTEM = UTC
START_TIME = 2010-01-01T00:00:00Z
USEABLE_START_TIME = 2010-01-01T00:00:00Z
USEABLE_STOP_TIME = 2010-01-01T10:00:00Z
STOP_TIME = 2010-01-01T10:00:00Z
INTERPOLATION = lagrange
INTERPOLATION_DEGREE = 5
META_STOP


2010-01-01T07:23:20Z -1.5208995e+07 3.9323435e+07 0.0000000e+00 -2.8677175e+03 -1.1091376e+03 0.0000000e+00

2010-01-01T07:25:00Z -1.5495359e+07 3.9211476e+07 0.0000000e+00 -2.8595528e+03 -1.1300212e+03 0.0000000e+00

2010-01-01T07:26:40Z -1.5780900e+07 3.9097433e+07 0.0000000e+00 -2.8512360e+03 -1.1508446e+03 0.0000000e+00

2010-01-01T07:28:20Z -1.6065602e+07 3.8981310e+07 0.0000000e+00 -2.8427675e+03 -1.1716069e+03 0.0000000e+00

2010-01-01T07:30:00Z -1.6349449e+07 3.8863113e+07 0.0000000e+00 -2.8341479e+03 -1.1923068e+03 0.0000000e+00

2010-01-01T07:31:40Z -1.6632426e+07 3.8742850e+07 0.0000000e+00 -2.8253775e+03 -1.2129434e+03 0.0000000e+00

2010-01-01T07:33:20Z -1.6914519e+07 3.8620527e+07 0.0000000e+00 -2.8164569e+03 -1.2335154e+03 0.0000000e+00

2010-01-01T07:35:00Z -1.7195713e+07 3.8496149e+07 0.0000000e+00 -2.8073865e+03 -1.2540218e+03 0.0000000e+00

2010-01-01T07:36:40Z -1.7475991e+07 3.8369725e+07 0.0000000e+00 -2.7981668e+03 -1.2744616e+03 0.0000000e+00

2010-01-01T07:38:20Z -1.7755341e+07 3.8241259e+07 0.0000000e+00 -2.7887983e+03 -1.2948335e+03 0.0000000e+00

2010-01-01T07:40:00Z -1.8033746e+07 3.8110760e+07 0.0000000e+00 -2.7792815e+03 -1.3151366e+03 0.0000000e+00

2010-01-01T07:41:40Z -1.8311192e+07 3.7978234e+07 0.0000000e+00 -2.7696168e+03 -1.3353698e+03 0.0000000e+00

2010-01-01T07:43:20Z -1.8587665e+07 3.7843689e+07 0.0000000e+00 -2.7598049e+03 -1.3555319e+03 0.0000000e+00

2010-01-01T07:45:00Z -1.8863148e+07 3.7707130e+07 0.0000000e+00 -2.7498462e+03 -1.3756220e+03 0.0000000e+00

2010-01-01T07:46:40Z -1.9137629e+07 3.7568567e+07 0.0000000e+00 -2.7397412e+03 -1.3956388e+03 0.0000000e+00

2010-01-01T07:48:20Z -1.9411092e+07 3.7428005e+07 0.0000000e+00 -2.7294906e+03 -1.4155815e+03 0.0000000e+00

2010-01-01T07:50:00Z -1.9683522e+07 3.7285453e+07 0.0000000e+00 -2.7190948e+03 -1.4354489e+03 0.0000000e+00

2010-01-01T07:51:40Z -1.9954906e+07 3.7140918e+07 0.0000000e+00 -2.7085543e+03 -1.4552399e+03 0.0000000e+00

2010-01-01T07:53:20Z -2.0225228e+07 3.6994408e+07 0.0000000e+00 -2.6978699e+03 -1.4749536e+03 0.0000000e+00

2010-01-01T07:55:00Z -2.0494475e+07 3.6845930e+07 0.0000000e+00 -2.6870419e+03 -1.4945888e+03 0.0000000e+00

2010-01-01T07:56:40Z -2.0762632e+07 3.6695492e+07 0.0000000e+00 -2.6760710e+03 -1.5141445e+03 0.0000000e+00

2010-01-01T07:58:20Z -2.1029685e+07 3.6543104e+07 0.0000000e+00 -2.6649579e+03 -1.5336197e+03 0.0000000e+00

2010-01-01T08:00:00Z -2.1295619e+07 3.6388771e+07 0.0000000e+00 -2.6537030e+03 -1.5530133e+03 0.0000000e+00

2010-01-01T08:01:40Z -2.1560420e+07 3.6232504e+07 0.0000000e+00 -2.6423069e+03 -1.5723244e+03 0.0000000e+00

2010-01-01T08:03:20Z -2.1824075e+07 3.6074309e+07 0.0000000e+00 -2.6307704e+03 -1.5915518e+03 0.0000000e+00

2010-01-01T08:05:00Z -2.2086570e+07 3.5914196e+07 0.0000000e+00 -2.6190939e+03 -1.6106946e+03 0.0000000e+00

2010-01-01T08:06:40Z -2.2347890e+07 3.5752173e+07 0.0000000e+00 -2.6072781e+03 -1.6297517e+03 0.0000000e+00

2010-01-01T08:08:20Z -2.2608021e+07 3.5588249e+07 0.0000000e+00 -2.5953237e+03 -1.6487221e+03 0.0000000e+00

2010-01-01T08:10:00Z -2.2866950e+07 3.5422432e+07 0.0000000e+00 -2.5832313e+03 -1.6676049e+03 0.0000000e+00

2010-01-01T08:11:40Z -2.3124663e+07 3.5254731e+07 0.0000000e+00 -2.5710014e+03 -1.6863989e+03 0.0000000e+00

2010-01-01T08:13:20Z -2.3381145e+07 3.5085155e+07 0.0000000e+00 -2.5586349e+03 -1.7051033e+03 0.0000000e+00

2010-01-01T08:15:00Z -2.3636385e+07 3.4913713e+07 0.0000000e+00 -2.5461322e+03 -1.7237170e+03 0.0000000e+00

2010-01-01T08:16:40Z -2.3890367e+07 3.4740414e+07 0.0000000e+00 -2.5334942e+03 -1.7422391e+03 0.0000000e+00

2010-01-01T08:18:20Z -2.4143079e+07 3.4565268e+07 0.0000000e+00 -2.5207214e+03 -1.7606684e+03 0.0000000e+00

2010-01-01T08:20:00Z -2.4394507e+07 3.4388284e+07 0.0000000e+00 -2.5078146e+03 -1.7790042e+03 0.0000000e+00

2010-01-01T08:21:40Z -2.4644638e+07 3.4209471e+07 0.0000000e+00 -2.4947744e+03 -1.7972453e+03 0.0000000e+00

2010-01-01T08:23:20Z -2.4893458e+07 3.4028838e+07 0.0000000e+00 -2.4816015e+03 -1.8153909e+03 0.0000000e+00

2010-01-01T08:25:00Z -2.5140954e+07 3.3846396e+07 0.0000000e+00 -2.4682966e+03 -1.8334399e+03 0.0000000e+00

2010-01-01T08:26:40Z -2.5387113e+07 3.3662153e+07 0.0000000e+00 -2.4548605e+03 -1.8513913e+03 0.0000000e+00

2010-01-01T08:28:20Z -2.5631921e+07 3.3476121e+07 0.0000000e+00 -2.4412938e+03 -1.8692444e+03 0.0000000e+00

2010-01-01T08:30:00Z -2.5875367e+07 3.3288308e+07 0.0000000e+00 -2.4275972e+03 -1.8869980e+03 0.0000000e+00

2010-01-01T08:31:40Z -2.6117437e+07 3.3098724e+07 0.0000000e+00 -2.4137716e+03 -1.9046513e+03 0.0000000e+00

2010-01-01T08:33:20Z -2.6358117e+07 3.2907381e+07 0.0000000e+00 -2.3998176e+03 -1.9222032e+03 0.0000000e+00

2010-01-01T08:35:00Z -2.6597396e+07 3.2714287e+07 0.0000000e+00 -2.3857360e+03 -1.9396530e+03 0.0000000e+00

2010-01-01T08:36:40Z -2.6835260e+07 3.2519454e+07 0.0000000e+00 -2.3715275e+03 -1.9569996e+03 0.0000000e+00

2010-01-01T08:38:20Z -2.7071697e+07 3.2322891e+07 0.0000000e+00 -2.3571928e+03 -1.9742421e+03 0.0000000e+00

2010-01-01T08:40:00Z -2.7306694e+07 3.2124609e+07 0.0000000e+00 -2.3427328e+03 -1.9913796e+03 0.0000000e+00

2010-01-01T08:41:40Z -2.7540240e+07 3.1924618e+07 0.0000000e+00 -2.3281483e+03 -2.0084112e+03 0.0000000e+00

2010-01-01T08:43:20Z -2.7772320e+07 3.1722930e+07 0.0000000e+00 -2.3134399e+03 -2.0253360e+03 0.0000000e+00

2010-01-01T08:45:00Z -2.8002923e+07 3.1519555e+07 0.0000000e+00 -2.2986084e+03 -2.0421531e+03 0.0000000e+00

2010-01-01T08:46:40Z -2.8232038e+07 3.1314503e+07 0.0000000e+00 -2.2836547e+03 -2.0588615e+03 0.0000000e+00

2010-01-01T08:48:20Z -2.8459650e+07 3.1107786e+07 0.0000000e+00 -2.2685796e+03 -2.0754605e+03 0.0000000e+00

2010-01-01T08:50:00Z -2.8685749e+07 3.0899415e+07 0.0000000e+00 -2.2533838e+03 -2.0919491e+03 0.0000000e+00

2010-01-01T08:51:40Z -2.8910323e+07 3.0689400e+07 0.0000000e+00 -2.2380682e+03 -2.1083265e+03 0.0000000e+00

2010-01-01T08:53:20Z -2.9133359e+07 3.0477753e+07 0.0000000e+00 -2.2226335e+03 -2.1245917e+03 0.0000000e+00

2010-01-01T08:55:00Z -2.9354846e+07 3.0264485e+07 0.0000000e+00 -2.2070807e+03 -2.1407439e+03 0.0000000e+00

2010-01-01T08:56:40Z -2.9574771e+07 3.0049608e+07 0.0000000e+00 -2.1914105e+03 -2.1567823e+03 0.0000000e+00

2010-01-01T08:58:20Z -2.9793124e+07 2.9833133e+07 0.0000000e+00 -2.1756237e+03 -2.1727060e+03 0.0000000e+00

2010-01-01T09:00:00Z -3.0009892e+07 2.9615071e+07 0.0000000e+00 -2.1597212e+03 -2.1885141e+03 0.0000000e+00

2010-01-01T09:01:40Z -3.0225064e+07 2.9395434e+07 0.0000000e+00 -2.1437039e+03 -2.2042059e+03 0.0000000e+00

2010-01-01T09:03:20Z -3.0438629e+07 2.9174233e+07 0.0000000e+00 -2.1275725e+03 -2.2197804e+03 0.0000000e+00

2010-01-01T09:05:00Z -3.0650575e+07 2.8951482e+07 0.0000000e+00 -2.1113280e+03 -2.2352368e+03 0.0000000e+00

2010-01-01T09:06:40Z -3.0860891e+07 2.8727190e+07 0.0000000e+00 -2.0949712e+03 -2.2505744e+03 0.0000000e+00

2010-01-01T09:08:20Z -3.1069566e+07 2.8501371e+07 0.0000000e+00 -2.0785031e+03 -2.2657923e+03 0.0000000e+00

2010-01-01T09:10:00Z -3.1276588e+07 2.8274036e+07 0.0000000e+00 -2.0619243e+03 -2.2808897e+03 0.0000000e+00

2010-01-01T09:11:40Z -3.1481947e+07 2.8045197e+07 0.0000000e+00 -2.0452359e+03 -2.2958658e+03 0.0000000e+00

2010-01-01T09:13:20Z -3.1685632e+07 2.7814867e+07 0.0000000e+00 -2.0284388e+03 -2.3107198e+03 0.0000000e+00

2010-01-01T09:15:00Z -3.1887631e+07 2.7583057e+07 0.0000000e+00 -2.0115337e+03 -2.3254509e+03 0.0000000e+00

2010-01-01T09:16:40Z -3.2087935e+07 2.7349780e+07 0.0000000e+00 -1.9945217e+03 -2.3400583e+03 0.0000000e+00

2010-01-01T09:18:20Z -3.2286532e+07 2.7115049e+07 0.0000000e+00 -1.9774036e+03 -2.3545413e+03 0.0000000e+00

2010-01-01T09:20:00Z -3.2483412e+07 2.6878876e+07 0.0000000e+00 -1.9601803e+03 -2.3688991e+03 0.0000000e+00

2010-01-01T09:21:40Z -3.2678564e+07 2.6641274e+07 0.0000000e+00 -1.9428528e+03 -2.3831309e+03 0.0000000e+00

2010-01-01T09:23:20Z -3.2871979e+07 2.6402254e+07 0.0000000e+00 -1.9254220e+03 -2.3972359e+03 0.0000000e+00

2010-01-01T09:25:00Z -3.3063645e+07 2.6161831e+07 0.0000000e+00 -1.9078888e+03 -2.4112134e+03 0.0000000e+00

2010-01-01T09:26:40Z -3.3253553e+07 2.5920016e+07 0.0000000e+00 -1.8902541e+03 -2.4250627e+03 0.0000000e+00

2010-01-01T09:28:20Z -3.3441693e+07 2.5676823e+07 0.0000000e+00 -1.8725189e+03 -2.4387831e+03 0.0000000e+00

2010-01-01T09:30:00Z -3.3628054e+07 2.5432264e+07 0.0000000e+00 -1.8546841e+03 -2.4523737e+03 0.0000000e+00

2010-01-01T09:31:40Z -3.3812626e+07 2.5186352e+07 0.0000000e+00 -1.8367506e+03 -2.4658339e+03 0.0000000e+00

2010-01-01T09:33:20Z -3.3995401e+07 2.4939101e+07 0.0000000e+00 -1.8187195e+03 -2.4791630e+03 0.0000000e+00

2010-01-01T09:35:00Z -3.4176367e+07 2.4690524e+07 0.0000000e+00 -1.8005916e+03 -2.4923602e+03 0.0000000e+00

2010-01-01T09:36:40Z -3.4355516e+07 2.4440634e+07 0.0000000e+00 -1.7823680e+03 -2.5054249e+03 0.0000000e+00

2010-01-01T09:38:20Z -3.4532838e+07 2.4189444e+07 0.0000000e+00 -1.7640496e+03 -2.5183564e+03 0.0000000e+00

2010-01-01T09:40:00Z -3.4708323e+07 2.3936967e+07 0.0000000e+00 -1.7456374e+03 -2.5311539e+03 0.0000000e+00

2010-01-01T09:41:40Z -3.4881962e+07 2.3683217e+07 0.0000000e+00 -1.7271323e+03 -2.5438168e+03 0.0000000e+00

2010-01-01T09:43:20Z -3.5053746e+07 2.3428208e+07 0.0000000e+00 -1.7085354e+03 -2.5563444e+03 0.0000000e+00

2010-01-01T09:45:00Z -3.5223666e+07 2.3171953e+07 0.0000000e+00 -1.6898477e+03 -2.5687360e+03 0.0000000e+00

2010-01-01T09:46:40Z -3.5391713e+07 2.2914465e+07 0.0000000e+00 -1.6710700e+03 -2.5809910e+03 0.0000000e+00

